INTELSAT 34             
1 40874C 15039A   21067.00000000 -.00000197  00000-0  00000-0 0   671
2 40874   0.0030 130.7679 0000574  45.2582 294.3743  1.00270179    13
INTELSAT 31             
1 41581C 16035A   21063.00000000 -.00000061  00000-0  00000-0 0   636
2 41581   0.0111 192.3331 0001854  17.0489 217.5209  1.00270380    11
INTELSAT 31         [PM]
1 41581C 16035A   21064.15111111 -.00000061  00000-0  00000-0 0   640
2 41581   0.0101 191.6328 0002123   8.7459 282.0534  1.00272288    19
INTELSAT 31             
1 41581C 16035A   21067.00000000 -.00000061  00000-0  00000-0 0   674
2 41581   0.0123 183.3738 0002038  21.6982 225.7655  1.00270074    15
INTELSAT 36             
1 41747C 16053A   21063.00000000  .00000064  00000-0  00000-0 0   632
2 41747   0.0150  53.9291 0001502 332.0228 204.4828  1.00270844    13
INTELSAT 36         [PM]
1 41747C 16053A   21064.09217593  .00000065  00000-0  00000-0 0   641
2 41747   0.0273  16.2000 0001562 355.1467 253.3432  1.00272496    15
INTELSAT 36             
1 41747C 16053A   21067.00000000  .00000066  00000-0  00000-0 0   672
2 41747   0.0089  80.5117 0001519 307.3194 206.5452  1.00271173    14
INTELSAT 33E            
1 41748C 16053B   21062.95148148  .00000111  00000-0  00000-0 0   624
2 41748   0.0138 297.4449 0001442  71.4392 195.5397  1.00272143    14
INTELSAT 33E        [PM]
1 41748C 16053B   21066.18986111  .00000128  00000-0  00000-0 0   665
2 41748   0.0015 251.2339 0001335 130.0934 272.1127  1.00273834    10
INTELSAT 33E            
1 41748C 16053B   21067.00000000  .00000056  00000-0  00000-0 0   672
2 41748   0.0093  27.4797 0001388 353.5265 204.8867  1.00273543    14
INTELSAT 33E        [PM]
1 41748C 16053B   21067.43871528  .00000100  00000-0  00000-0 0   670
2 41748   0.0101  27.0989 0001288 355.0857   2.0812  1.00273811    12
INTELSAT 32E        [PM]
1 41945C 17007B   21062.01886574 -.00000024  00000-0  00000-0 0   626
2 41945   0.0048 118.8354 0000275 290.0061  75.7512  1.00273481    13
INTELSAT 32E            
1 41945C 17007B   21062.95148148 -.00000179  00000-0  00000-0 0   628
2 41945   0.0069 120.7698 0000174 324.2246  16.2624  1.00270101    12
INTELSAT 32E            
1 41945C 17007B   21067.00000000 -.00000178  00000-0  00000-0 0   677
2 41945   0.0062 127.9261 0000344 260.4729  94.3251  1.00270301    11
INTELSAT 35E            
1 42818C 17041A   21062.95148148 -.00000148  00000-0  00000-0 0   622
2 42818   0.0293 221.9577 0001852 141.0763 106.9201  1.00271527    15
INTELSAT 35E        [PM]
1 42818C 17041A   21065.96773148 -.00000148  00000-0  00000-0 0   653
2 42818   0.0352 234.6090 0001871 134.1628 109.9962  1.00271018    18
INTELSAT 35E            
1 42818C 17041A   21067.00000000 -.00000148  00000-0  00000-0 0   672
2 42818   0.0337 227.3321 0001868 143.1492 120.9177  1.00270681    18
INTELSAT 35E        [PM]
1 42818C 17041A   21068.81030093 -.00000148  00000-0  00000-0 0   688
2 42818   0.0313 216.8085 0001723 149.8564  58.2195  1.00273098    13
INTELSAT 37E            
1 42950C 17059A   21062.95148148 -.00000009  00000-0  00000-0 0   624
2 42950   0.0390 332.4515 0002244  23.0441 130.9213  1.00272683    12
INTELSAT 37E        [PM]
1 42950C 17059A   21066.40694444  .00000095  00000-0  00000-0 0   661
2 42950   0.0057 200.9852 0002121 161.2208 291.5897  1.00272634    13
INTELSAT 37E            
1 42950C 17059A   21067.00000000 -.00000166  00000-0  00000-0 0   678
2 42950   0.0036 190.0109 0002135 173.2095 144.6615  1.00272559    18
AZERSPACE 2             
1 43632C 18074A   21063.00000000  .00000227  00000-0  00000-0 0   633
2 43632   0.0066 122.0071 0001462 244.3388 200.7021  1.00271736    10
AZERSPACE 2             
1 43632C 18074A   21067.00000000  .00000227  00000-0  00000-0 0   671
2 43632   0.0041 131.6733 0001351 233.2886 206.0345  1.00270525    14
HORIZONS 3E             
1 43633C 18074B   21063.00000000  .00000064  00000-0  00000-0 0   633
2 43633   0.0134  35.3189 0000456 310.2057 345.4162  1.00271320    13
HORIZONS 3E             
1 43633C 18074B   21067.00000000  .00000059  00000-0  00000-0 0   675
2 43633   0.0194  27.0864 0000586 305.1055   2.6928  1.00269500    11
INTELSAT 39         [PM]
1 44476C 19049B   21062.28744213 -.00000010  00000-0  00000-0 0   623
2 44476   0.0000 181.5499 0001247 316.9493 188.1746  1.00272056    12
INTELSAT 39             
1 44476C 19049B   21063.00000000  .00000125  00000-0  00000-0 0   630
2 44476   0.0004 161.8364 0001449 336.9891  85.0695  1.00270939    12
INTELSAT 39             
1 44476C 19049B   21067.00000000  .00000124  00000-0  00000-0 0   677
2 44476   0.0000 148.1259 0001501 353.1945  86.5165  1.00271048    19
GALAXY 30               
1 46114C 20056C   21062.95148148  .00000189  00000-0  00000-0 0   629
2 46114   0.0224  32.7992 0001615 328.7123  17.9180  1.00272889    11
GALAXY 30           [PM]
1 46114C 20056C   21066.63611111  .00000118  00000-0  00000-0 0   669
2 46114   0.0029 135.5753 0001579 226.6347 267.3353  1.00269180    17
GALAXY 30               
1 46114C 20056C   21067.00000000  .00000127  00000-0  00000-0 0   671
2 46114   0.0038 134.3694 0001567 228.2562  38.2749  1.00269270    16
